#aV2011  1  4  0  0   .00000000      96 DD+AD WGS84 FIT  NGA
## 1617 172800.00000000   900.00000000 55565  .0000000000000
+   32     1  2  3  4  5  6  7  8  9 10 11 12 13 14 15 16 17
+         18 19 20 21 22 23 24 25 26 27 28 29 30 31 32  0  0
+          0  0  0  0  0  0  0  0  0  0  0  0  0  0  0  0  0
+          0  0  0  0  0  0  0  0  0  0  0  0  0  0  0  0  0
+          0  0  0  0  0  0  0  0  0  0  0  0  0  0  0  0  0
++         0  0  0  0  0  0  0  0  0  0  0  0  0  0  0  0  0
++         0  0  0  0  0  0  0  0  0  0  0  0  0  0  0  0  0
++         0  0  0  0  0  0  0  0  0  0  0  0  0  0  0  0  0
++         0  0  0  0  0  0  0  0  0  0  0  0  0  0  0  0  0
++         0  0  0  0  0  0  0  0  0  0  0  0  0  0  0  0  0
%c cc cc ccc ccc cccc cccc cccc cccc ccccc ccccc ccccc ccccc
%c cc cc ccc ccc cccc cccc cccc cccc ccccc ccccc ccccc ccccc
%f  0.0000000  0.000000000  0.00000000000  0.000000000000000
%f  0.0000000  0.000000000  0.00000000000  0.000000000000000
%i    0    0    0    0      0      0      0      0         0
%i    0    0    0    0      0      0      0      0         0
/*      NGA, ST. LOUIS,MO.                                  
/*   EPHEMERIS COMPUTED FROM  3 DAYS OF DATA                
/* CCCCCCCCCCCCCCCCCCCCCCCCCCCCCCCCCCCCCCCCCCCCCCCCCCCCCCCCC
/* CCCCCCCCCCCCCCCCCCCCCCCCCCCCCCCCCCCCCCCCCCCCCCCCCCCCCCCCC
*  2011  1  4  0  0   .00000000                                                 
P  1 -10737.857420 -11197.734229 -21682.491312   -197.051797                    
V  1  23865.907036 -13115.934168  -4945.418619      -.032644                    
P  2  13404.826694  13575.014327 -18654.249871    312.620680                    
V  2  -1932.743039  23588.270113  15293.009913       .022450                    
P  3 -24689.215666 -10043.178355   1691.629280    657.712550                    
V  3   -870.241897  -4337.931509 -30716.381164       .051437                    
P  4   8155.420217  22049.840754 -12207.425452    261.996643                    
V  4  -3681.379370  15248.264874  25864.083662       .099070                    
P  5  21236.422266   1439.702604 -15967.217443    -93.288213                    
V  5 -16913.793724  11244.587470 -21401.961960      -.059429                    
P  6 -22894.815164 -13613.273424  -1089.107105    377.338256                    
V  6   3047.043335  -2258.060282 -31019.606678      -.063926                    
P  7  -6065.684722  24666.836979  -7390.393616      1.274967                    
V  7  -2049.334604  -9524.683398 -30277.908995       .005558                    
P  8   -216.472348  25921.842244   4224.258298      7.126084                    
V  8  -2755.058518   5127.666037 -32261.842743       .000924                    
P  9  13591.039925  -9539.385617  20185.806939     53.058085                    
V  9    584.858742  26817.338465  11974.056370       .023956                    
P 10   9059.929724  12764.377687 -21680.886154    -62.222585                    
V 10 -24135.752209  12245.444596  -2535.922557      -.010366                    
P 11 -13543.945542  11637.633516  19264.291266   -116.472870                    
V 11  -7211.288372 -24589.223069   9986.679073      -.029273                    
P 12  24200.111046 -10416.043644   2625.243264    -38.931890                    
V 12  -1784.584656   3752.305370  31914.009999       .033720                    
P 13  -6476.519836  13279.254433 -22203.758681    287.041549                    
V 13 -22483.423024 -16322.443423  -3267.056541      -.011845                    
P 14 -11340.611480 -19523.049698  14253.499156    120.973839                    
V 14  15347.923251   8996.640335  24681.434437       .030272                    
P 15  21082.474409   -842.569306  16244.452637   -164.923314                    
V 15  16621.874159  12256.305546 -20801.591972       .039721                    
P 16 -18525.541270  -4870.202633 -18489.542667   -139.814346                    
V 16  20504.936330 -11338.270922 -17250.578592      -.030705                    
P 17   9895.158119  19469.499704  15388.155479    181.010617                    
V 17 -17039.839180  -9120.063240  22445.855700       .007225                    
P 18  10168.540889 -18532.244686  16153.474792    113.970987                    
V 18  19160.308343  -6867.918433 -20686.585940       .021098                    
P 19 -22398.256585  -4605.815376  13788.213024    -98.175291                    
V 19 -12733.807947 -11999.776801 -24374.607821      -.035551                    
P 20 -22382.109931  14170.040756  -1469.572992     48.872846                    
V 20  -3320.957021  -2338.557201  31137.747521      -.000966                    
P 21   5249.257942 -25018.310978  -5510.380461   -114.126554                    
V 21   3849.622850   7807.782061 -30403.127515      -.027269                    
P 22  -1989.658301 -16394.800678  20955.040755    155.728778                    
V 22  23912.635245 -11102.468091  -6560.419684      -.006669                    
P 23 -16996.602659   5369.115634 -19796.984910    334.293930                    
V 23 -20559.544283 -14285.922586  13451.786215      -.022142                    
P 24 -14689.918897  11297.316081  18992.021262    353.541327                    
V 24    476.215220 -24170.051529  15051.559939       .031650                    
P 25  16897.199169 -17616.186662 -10488.433036    -61.661187                    
V 25  12816.139500  -4278.950650  27869.802968      -.021174                    
P 26  23001.176889  12272.569852   5554.617493    -87.726224                    
V 26   5267.574083   5841.806494 -31066.047390      -.089659                    
P 27  15047.661154  -1970.342819  22466.059084    223.406497                    
V 27    592.197452  26847.369243   2273.900711       .038149                    
P 28  -2032.561322  16785.443166  20918.620181     12.723258                    
V 28 -23309.869292  10272.178927 -11044.188316       .018870                    
P 29   8718.064846 -12413.780312 -21722.972977    175.450206                    
V 29  22985.455163  15584.215949    354.004081       .027588                    
P 30  -9561.491540 -12261.362273 -21978.614002    310.456835                    
V 30  23074.227790 -13777.288458  -2389.829033       .032569                    
P 31  -8384.554953 -20863.625730 -13763.248468     25.780906                    
V 31   2712.058449 -17786.449261  25110.734724       .042116                    
P 32 -24984.086743   5623.345121   6513.744309   -167.490228                    
V 32   6132.056885  -5964.895596  30452.136631      -.081114                    
EOF
